CTC2_L_00107001-01
1 64702U 24097DK  26037.47791667  .00000000  00000+0  00000-0 0  9995
2 64702 100.0000   0.0000 0000000   0.0000   0.0000 14.60983372    16
CTC2_L_00107001-02
1 64703U 23238RL  26037.47791667  .00000000  00000+0  00000-0 0  9992
2 64703 100.0000   0.0000 0000000   0.0000  90.0000 14.60983372    16
CTC2_L_00107001-03
1 64704U 26739UP  26037.47791667  .00000000  00000+0  00000-0 0  9992
2 64704 100.0000   0.0000 0000000   0.0000 180.0000 14.60983372    17
CTC2_L_00107001-04
1 64705U 22559F   26037.47791667  .00000000  00000+0  00000-0 0  9999
2 64705 100.0000   0.0000 0000000   0.0000 270.0000 14.60983372    18
CTC2_L_00107002-01
1 64706U 25247NB  26037.47791667  .00000000  00000+0  00000-0 0  9997
2 64706 100.0000  12.0000 0000000   0.0000  12.0000 14.60983372    16
CTC2_L_00107002-02
1 64707U 23081CU  26037.47791667  .00000000  00000+0  00000-0 0  9992
2 64707 100.0000  12.0000 0000000   0.0000 102.0000 14.60983372    17
CTC2_L_00107002-03
1 64708U 25654WH  26037.47791667  .00000000  00000+0  00000-0 0  9991
2 64708 100.0000  12.0000 0000000   0.0000 192.0000 14.60983372    17
CTC2_L_00107002-04
1 64709U 25064DE  26037.47791667  .00000000  00000+0  00000-0 0  9997
2 64709 100.0000  12.0000 0000000   0.0000 282.0000 14.60983372    18
CTC2_L_00107003-01
1 64710U 25643DG  26037.47791667  .00000000  00000+0  00000-0 0  9992
2 64710 100.0000  24.0000 0000000   0.0000  24.0000 14.60983372    17
CTC2_L_00107003-02
1 64711U 25361CK  26037.47791667  .00000000  00000+0  00000-0 0  9990
2 64711 100.0000  24.0000 0000000   0.0000 114.0000 14.60983372    18
CTC2_L_00107003-03
1 64712U 25332AU  26037.47791667  .00000000  00000+0  00000-0 0  9999
2 64712 100.0000  24.0000 0000000   0.0000 204.0000 14.60983372    19
CTC2_L_00107003-04
1 64713U 24109MH  26037.47791667  .00000000  00000+0  00000-0 0  9991
2 64713 100.0000  24.0000 0000000   0.0000 294.0000 14.60983372    19
CTC2_L_00107004-01
1 64714U 23241WB  26037.47791667  .00000000  00000+0  00000-0 0  9998
2 64714 100.0000  36.0000 0000000   0.0000  36.0000 14.60983372    17
CTC2_L_00107004-02
1 64715U 25338UH  26037.47791667  .00000000  00000+0  00000-0 0  9998
2 64715 100.0000  36.0000 0000000   0.0000 126.0000 14.60983372    18
CTC2_L_00107004-03
1 64716U 25620KS  26037.47791667  .00000000  00000+0  00000-0 0  9993
2 64716 100.0000  36.0000 0000000   0.0000 216.0000 14.60983372    19
CTC2_L_00107004-04
1 64717U 23937HM  26037.47791667  .00000000  00000+0  00000-0 0  9993
2 64717 100.0000  36.0000 0000000   0.0000 306.0000 14.60983372    10
CTC2_L_00107005-01
1 64718U 25180SV  26037.47791667  .00000000  00000+0  00000-0 0  9996
2 64718 100.0000  48.0000 0000000   0.0000  48.0000 14.60983372    17
CTC2_L_00107005-02
1 64719U 25575SY  26037.47791667  .00000000  00000+0  00000-0 0  9995
2 64719 100.0000  48.0000 0000000   0.0000 138.0000 14.60983372    18
CTC2_L_00107005-03
1 64720U 23057CN  26037.47791667  .00000000  00000+0  00000-0 0  9990
2 64720 100.0000  48.0000 0000000   0.0000 228.0000 14.60983372    10
CTC2_L_00107005-04
1 64721U 25022PT  26037.47791667  .00000000  00000+0  00000-0 0  9995
2 64721 100.0000  48.0000 0000000   0.0000 318.0000 14.60983372    11
CTC2_L_00107006-01
1 64722U 25673PG  26037.47791667  .00000000  00000+0  00000-0 0  9998
2 64722 100.0000  60.0000 0000000   0.0000  60.0000 14.60983372    10
CTC2_L_00107006-02
1 64723U 23880RK  26037.47791667  .00000000  00000+0  00000-0 0  9997
2 64723 100.0000  60.0000 0000000   0.0000 150.0000 14.60983372    11
CTC2_L_00107006-03
1 64724U 22559MU  26037.47791667  .00000000  00000+0  00000-0 0  9990
2 64724 100.0000  60.0000 0000000   0.0000 240.0000 14.60983372    12
CTC2_L_00107006-04
1 64725U 23317MN  26037.47791667  .00000000  00000+0  00000-0 0  9994
2 64725 100.0000  60.0000 0000000   0.0000 330.0000 14.60983372    13
CTC2_L_00107007-01
1 64726U 25185SC  26037.47791667  .00000000  00000+0  00000-0 0  9990
2 64726 100.0000  72.0000 0000000   0.0000  72.0000 14.60983372    10
CTC2_L_00107007-02
1 64727U 22885F   26037.47791667  .00000000  00000+0  00000-0 0  9995
2 64727 100.0000  72.0000 0000000   0.0000 162.0000 14.60983372    11
CTC2_L_00107007-03
1 64728U 26668BA  26037.47791667  .00000000  00000+0  00000-0 0  9999
2 64728 100.0000  72.0000 0000000   0.0000 252.0000 14.60983372    12
CTC2_L_00107007-04
1 64729U 26429FG  26037.47791667  .00000000  00000+0  00000-0 0  9995
2 64729 100.0000  72.0000 0000000   0.0000 342.0000 14.60983372    13
CTC2_L_00107008-01
1 64730U 23246QZ  26037.47791667  .00000000  00000+0  00000-0 0  9991
2 64730 100.0000  84.0000 0000000   0.0000  84.0000 14.60983372    11
CTC2_L_00107008-02
1 64731U 23772KN  26037.47791667  .00000000  00000+0  00000-0 0  9996
2 64731 100.0000  84.0000 0000000   0.0000 174.0000 14.60983372    12
CTC2_L_00107008-03
1 64732U 26612OY  26037.47791667  .00000000  00000+0  00000-0 0  9993
2 64732 100.0000  84.0000 0000000   0.0000 264.0000 14.60983372    13
CTC2_L_00107008-04
1 64733U 22623NH  26037.47791667  .00000000  00000+0  00000-0 0  9992
2 64733 100.0000  84.0000 0000000   0.0000 354.0000 14.60983372    14
CTC2_L_00107009-01
1 64734U 26001PU  26037.47791667  .00000000  00000+0  00000-0 0  9997
2 64734 100.0000  96.0000 0000000   0.0000  96.0000 14.60983372    11
CTC2_L_00107009-02
1 64735U 24728QP  26037.47791667  .00000000  00000+0  00000-0 0  9992
2 64735 100.0000  96.0000 0000000   0.0000 186.0000 14.60983372    12
CTC2_L_00107009-03
1 64736U 22151L   26037.47791667  .00000000  00000+0  00000-0 0  9991
2 64736 100.0000  96.0000 0000000   0.0000 276.0000 14.60983372    13
CTC2_L_00107009-04
1 64737U 25213DX  26037.47791667  .00000000  00000+0  00000-0 0  9994
2 64737 100.0000  96.0000 0000000   0.0000   6.0000 14.60983372    15
CTC2_L_00107010-01
1 64738U 23149CP  26037.47791667  .00000000  00000+0  00000-0 0  9991
2 64738 100.0000 108.0000 0000000   0.0000 108.0000 14.60983372    13
CTC2_L_00107010-02
1 64739U 23543HS  26037.47791667  .00000000  00000+0  00000-0 0  9990
2 64739 100.0000 108.0000 0000000   0.0000 198.0000 14.60983372    13
CTC2_L_00107010-03
1 64740U 23940YZ  26037.47791667  .00000000  00000+0  00000-0 0  9993
2 64740 100.0000 108.0000 0000000   0.0000 288.0000 14.60983372    15
CTC2_L_00107010-04
1 64741U 23205LW  26037.47791667  .00000000  00000+0  00000-0 0  9998
2 64741 100.0000 108.0000 0000000   0.0000  18.0000 14.60983372    17
CTC2_L_00107011-01
1 64742U 22586YS  26037.47791667  .00000000  00000+0  00000-0 0  9990
2 64742 100.0000 120.0000 0000000   0.0000 120.0000 14.60983372    16
CTC2_L_00107011-02
1 64743U 22797JN  26037.47791667  .00000000  00000+0  00000-0 0  9995
2 64743 100.0000 120.0000 0000000   0.0000 210.0000 14.60983372    17
CTC2_L_00107011-03
1 64744U 22898Q   26037.47791667  .00000000  00000+0  00000-0 0  9998
2 64744 100.0000 120.0000 0000000   0.0000 300.0000 14.60983372    18
CTC2_L_00107011-04
1 64745U 25660ON  26037.47791667  .00000000  00000+0  00000-0 0  9999
2 64745 100.0000 120.0000 0000000   0.0000  30.0000 14.60983372    19
CTC2_L_00107012-01
1 64746U 22871NF  26037.47791667  .00000000  00000+0  00000-0 0  9991
2 64746 100.0000 132.0000 0000000   0.0000 132.0000 14.60983372    16
CTC2_L_00107012-02
1 64747U 23028PU  26037.47791667  .00000000  00000+0  00000-0 0  9997
2 64747 100.0000 132.0000 0000000   0.0000 222.0000 14.60983372    17
CTC2_L_00107012-03
1 64748U 24656RK  26037.47791667  .00000000  00000+0  00000-0 0  9996
2 64748 100.0000 132.0000 0000000   0.0000 312.0000 14.60983372    18
CTC2_L_00107012-04
1 64749U 26560LS  26037.47791667  .00000000  00000+0  00000-0 0  9993
2 64749 100.0000 132.0000 0000000   0.0000  42.0000 14.60983372    19
CTC2_L_00107013-01
1 64750U 24851VP  26037.47791667  .00000000  00000+0  00000-0 0  9996
2 64750 100.0000 144.0000 0000000   0.0000 144.0000 14.60983372    17
CTC2_L_00107013-02
1 64751U 23373DH  26037.47791667  .00000000  00000+0  00000-0 0  9995
2 64751 100.0000 144.0000 0000000   0.0000 234.0000 14.60983372    18
CTC2_L_00107013-03
1 64752U 23371V   26037.47791667  .00000000  00000+0  00000-0 0  9994
2 64752 100.0000 144.0000 0000000   0.0000 324.0000 14.60983372    19
CTC2_L_00107013-04
1 64753U 22281DI  26037.47791667  .00000000  00000+0  00000-0 0  9994
2 64753 100.0000 144.0000 0000000   0.0000  54.0000 14.60983372    10
CTC2_L_00107014-01
1 64754U 23995BK  26037.47791667  .00000000  00000+0  00000-0 0  9998
2 64754 100.0000 156.0000 0000000   0.0000 156.0000 14.60983372    17
CTC2_L_00107014-02
1 64755U 24224CR  26037.47791667  .00000000  00000+0  00000-0 0  9995
2 64755 100.0000 156.0000 0000000   0.0000 246.0000 14.60983372    18
CTC2_L_00107014-03
1 64756U 23204NC  26037.47791667  .00000000  00000+0  00000-0 0  9993
2 64756 100.0000 156.0000 0000000   0.0000 336.0000 14.60983372    19
CTC2_L_00107014-04
1 64757U 25363PC  26037.47791667  .00000000  00000+0  00000-0 0  9992
2 64757 100.0000 156.0000 0000000   0.0000  66.0000 14.60983372    10
CTC2_L_00107015-01
1 64758U 22194EH  26037.47791667  .00000000  00000+0  00000-0 0  9992
2 64758 100.0000 168.0000 0000000   0.0000 168.0000 14.60983372    17
CTC2_L_00107015-02
1 64759U 25369SN  26037.47791667  .00000000  00000+0  00000-0 0  9990
2 64759 100.0000 168.0000 0000000   0.0000 258.0000 14.60983372    18
CTC2_L_00107015-03
1 64760U 22006OH  26037.47791667  .00000000  00000+0  00000-0 0  9997
2 64760 100.0000 168.0000 0000000   0.0000 348.0000 14.60983372    10
CTC2_L_00107015-04
1 64761U 25410WO  26037.47791667  .00000000  00000+0  00000-0 0  9990
2 64761 100.0000 168.0000 0000000   0.0000  78.0000 14.60983372    11
CTC2_L_00107016-01
1 64762U 24078YO  26037.47791667  .00000000  00000+0  00000-0 0  9990
2 64762 100.0000 180.0000 0000000   0.0000 180.0000 14.60983372    10
CTC2_L_00107016-02
1 64763U 26421FB  26037.47791667  .00000000  00000+0  00000-0 0  9995
2 64763 100.0000 180.0000 0000000   0.0000 270.0000 14.60983372    11
